COMMENT,ORIGINATOR,NORAD_CAT_ID,OBJECT_NAME,OBJECT_TYPE,CLASSIFICATION_TYPE,INTLDES,EPOCH,EPOCH_MICROSECONDS,MEAN_MOTION,ECCENTRICITY,INCLINATION,RA_OF_ASC_NODE,ARG_OF_PERICENTER,MEAN_ANOMALY,EPHEMERIS_TYPE,ELEMENT_SET_NO,REV_AT_EPOCH,BSTAR,MEAN_MOTION_DOT,MEAN_MOTION_DDOT,FILE,TLE_LINE0,TLE_LINE1,TLE_LINE2,OBJECT_ID,OBJECT_NUMBER,SEMIMAJOR_AXIS,PERIOD,APOGEE,PERIGEE,DECAYED,date
GENERATED VIA SPACETRACK.ORG API,18 SPCS,48895,SPACEBEE-108,PAYLOAD,U,21059S,2023/2/4 8:48,541856,15.2202836,0.0008563,97.5787,170.219,18.2455,341.9087,0,999,8912,0.00096559,0.00022062,0,3771607,0 SPACEBEE-108,1 48895U 21059S   23035.36696229  .00022062  00000-0  96559-3 0  9996,2 48895  97.5787 170.2190 0008563  18.2455 341.9087 15.22028360 89127,2021-059S,48895,6877.86,94.611,505.615,493.836,0,2023/3/11
GENERATED VIA SPACETRACK.ORG API,18 SPCS,48895,SPACEBEE-108,PAYLOAD,U,21059S,2023/2/4 8:48,541856,15.2202836,0.0008563,97.5787,170.219,18.2455,341.9087,0,999,8912,0.00096559,0.00022062,0,3771952,0 SPACEBEE-108,1 48895U 21059S   23035.36696229  .00022062  00000-0  96559-3 0  9996,2 48895  97.5787 170.2190 0008563  18.2455 341.9087 15.22028360 89127,2021-059S,48895,6877.86,94.611,505.615,493.836,0,2023/3/12
GENERATED VIA SPACETRACK.ORG API,18 SPCS,48895,SPACEBEE-108,PAYLOAD,U,21059S,2023/2/4 21:25,216640,15.22048797,0.0008512,97.5789,170.749,16.5507,343.6005,0,999,8920,0.00077884,0.00017781,0,3772514,0 SPACEBEE-108,1 48895U 21059S   23035.89290760  .00017781  00000-0  77884-3 0  9996,2 48895  97.5789 170.7490 0008512  16.5507 343.6005 15.22048797 89204,2021-059S,48895,6877.799,94.609,505.518,493.809,0,2023/3/13
GENERATED VIA SPACETRACK.ORG API,18 SPCS,48895,SPACEBEE-108,PAYLOAD,U,21059S,2023/2/5 10:03,252928,15.22070473,0.0008521,97.5789,171.2793,14.6409,345.5072,0,999,8928,0.0008242,0.00018836,0,3773172,0 SPACEBEE-108,1 48895U 21059S   23036.41884552  .00018836  00000-0  82420-3 0  9997,2 48895  97.5789 171.2793 0008521  14.6409 345.5072 15.22070473 89285,2021-059S,48895,6877.733,94.608,505.459,493.738,0,2023/3/14
GENERATED VIA SPACETRACK.ORG API,18 SPCS,48895,SPACEBEE-108,PAYLOAD,U,21059S,2023/2/5 10:03,252928,15.22070473,0.0008521,97.5789,171.2793,14.6409,345.5072,0,999,8928,0.0008242,0.00018836,0,3773728,0 SPACEBEE-108,1 48895U 21059S   23036.41884552  .00018836  00000-0  82420-3 0  9997,2 48895  97.5789 171.2793 0008521  14.6409 345.5072 15.22070473 89285,2021-059S,48895,6877.733,94.608,505.459,493.738,0,2023/3/15
GENERATED VIA SPACETRACK.ORG API,18 SPCS,48895,SPACEBEE-108,PAYLOAD,U,21059S,2023/2/5 21:05,620544,15.22090426,0.0008455,97.5789,171.7431,12.8511,347.2939,0,999,8935,0.0008571,0.00019604,0,3774172,0 SPACEBEE-108,1 48895U 21059S   23036.87903496  .00019604  00000-0  85710-3 0  9995,2 48895  97.5789 171.7431 0008455  12.8511 347.2939 15.22090426 89358,2021-059S,48895,6877.673,94.607,505.353,493.723,0,2023/3/16
GENERATED VIA SPACETRACK.ORG API,18 SPCS,48895,SPACEBEE-108,PAYLOAD,U,21059S,2023/2/6 8:08,431744,15.22113865,0.00085,97.5788,172.207,10.7346,349.407,0,999,8942,0.0010743,0.00024624,0,3775254,0 SPACEBEE-108,1 48895U 21059S   23037.33921796  .00024624  00000-0  10743-2 0  9991,2 48895  97.5788 172.2070 0008500  10.7346 349.4070 15.22113865 89427,2021-059S,48895,6877.603,94.605,505.314,493.622,0,2023/3/17
GENERATED VIA SPACETRACK.ORG API,18 SPCS,48895,SPACEBEE-108,PAYLOAD,U,21059S,2023/2/6 8:08,431744,15.22113865,0.00085,97.5788,172.207,10.7346,349.407,0,999,8942,0.0010743,0.00024624,0,3775438,0 SPACEBEE-108,1 48895U 21059S   23037.33921796  .00024624  00000-0  10743-2 0  9991,2 48895  97.5788 172.2070 0008500  10.7346 349.4070 15.22113865 89427,2021-059S,48895,6877.603,94.605,505.314,493.622,0,2023/3/18
GENERATED VIA SPACETRACK.ORG API,18 SPCS,48895,SPACEBEE-108,PAYLOAD,U,21059S,2023/2/6 20:45,416032,15.22143258,0.0008441,97.579,172.7368,8.6756,351.4624,0,999,8950,0.001168,0.00026808,0,3776034,0 SPACEBEE-108,1 48895U 21059S   23037.86513213  .00026808  00000-0  11680-2 0  9997,2 48895  97.5790 172.7368 0008441   8.6756 351.4624 15.22143258 89506,2021-059S,48895,6877.514,94.603,505.184,493.574,0,2023/3/19
GENERATED VIA SPACETRACK.ORG API,18 SPCS,48895,SPACEBEE-108,PAYLOAD,U,21059S,2023/2/7 7:48,759296,15.22173774,0.0008475,97.579,173.2008,7.0873,353.0481,0,999,8957,0.0013859,0.00031874,0,3776789,0 SPACEBEE-108,1 48895U 21059S   23038.32529814  .00031874  00000-0  13859-2 0  9992,2 48895  97.5790 173.2008 0008475   7.0873 353.0481 15.22173774 89575,2021-059S,48895,6877.422,94.602,505.116,493.459,0,2023/3/20
GENERATED VIA SPACETRACK.ORG API,18 SPCS,48895,SPACEBEE-108,PAYLOAD,U,21059S,2023/2/7 14:07,431072,15.22191396,0.0008443,97.579,173.4656,6.2764,353.8576,0,999,8961,0.0014091,0.00032427,0,3777208,0 SPACEBEE-108,1 48895U 21059S   23038.58824573  .00032427  00000-0  14091-2 0  9994,2 48895  97.5790 173.4656 0008443   6.2764 353.8576 15.22191396 89619,2021-059S,48895,6877.369,94.6,505.041,493.428,0,2023/3/21
GENERATED VIA SPACETRACK.ORG API,18 SPCS,48895,SPACEBEE-108,PAYLOAD,U,21059S,2023/2/7 20:25,862656,15.22208085,0.0008431,97.5791,173.7306,5.347,354.7854,0,999,8965,0.0013211,0.00030404,0,3777976,0 SPACEBEE-108,1 48895U 21059S   23038.85119054  .00030404  00000-0  13211-2 0  9991,2 48895  97.5791 173.7306 0008431   5.3470 354.7854 15.22208085 89653,2021-059S,48895,6877.319,94.599,504.982,493.386,0,2023/3/22
GENERATED VIA SPACETRACK.ORG API,18 SPCS,48895,SPACEBEE-108,PAYLOAD,U,21059S,2023/2/8 7:28,401888,15.22241813,0.000851,97.5794,174.1949,3.9,356.2301,0,999,8972,0.0014068,0.00032423,0,3780324,0 SPACEBEE-108,1 48895U 21059S   23039.31133567  .00032423  00000-0  14068-2 0  9992,2 48895  97.5794 174.1949 0008510   3.9000 356.2301 15.22241813 89723,2021-059S,48895,6877.217,94.597,504.935,493.23,0,2023/3/23
GENERATED VIA SPACETRACK.ORG API,18 SPCS,48895,SPACEBEE-108,PAYLOAD,U,21059S,2023/2/8 21:40,679904,15.22286834,0.0008473,97.5796,174.791,1.979,358.1478,0,999,8981,0.0015219,0.0003514,0,3780893,0 SPACEBEE-108,1 48895U 21059S   23039.90293611  .00035140  00000-0  15219-2 0  9992,2 48895  97.5796 174.7910 0008473   1.9790 358.1478 15.22286834 89819,2021-059S,48895,6877.082,94.595,504.774,493.12,0,2023/3/24
GENERATED VIA SPACETRACK.ORG API,18 SPCS,48895,SPACEBEE-108,PAYLOAD,U,21059S,2023/2/9 2:24,441952,15.22302195,0.0008437,97.5794,174.9899,1.7282,358.3982,0,999,8984,0.0016246,0.00037545,0,3781256,0 SPACEBEE-108,1 48895U 21059S   23040.10013243  .00037545  00000-0  16246-2 0  9999,2 48895  97.5794 174.9899 0008437   1.7282 358.3982 15.22302195 89843,2021-059S,48895,6877.035,94.594,504.703,493.098,0,2023/3/25
GENERATED VIA SPACETRACK.ORG API,18 SPCS,48895,SPACEBEE-108,PAYLOAD,U,21059S,2023/2/9 8:42,178368,15.22323296,0.0008437,97.5794,175.2549,0.9111,359.2139,0,999,8988,0.0016176,0.00037406,0,3782313,0 SPACEBEE-108,1 48895U 21059S   23040.36305762  .00037406  00000-0  16176-2 0  9995,2 48895  97.5794 175.2549 0008437   0.9111 359.2139 15.22323296 89884,2021-059S,48895,6876.972,94.592,504.639,493.035,0,2023/3/26
GENERATED VIA SPACETRACK.ORG API,18 SPCS,48895,SPACEBEE-108,PAYLOAD,U,21059S,2023/2/9 19:45,814560,15.22355935,0.0008415,97.5794,175.7188,359.3559,0.7665,0,999,8995,0.0015177,0.00035114,0,3783241,0 SPACEBEE-108,1 48895U 21059S   23040.82316915  .00035114  00000-0  15177-2 0  9992,2 48895  97.5794 175.7188 0008415 359.3559   0.7665 15.22355935 89956,2021-059S,48895,6876.874,94.59,504.525,492.952,0,2023/3/27
GENERATED VIA SPACETRACK.ORG API,18 SPCS,48895,SPACEBEE-108,PAYLOAD,U,21059S,2023/2/9 22:54,798720,15.22367452,0.0008428,97.5795,175.8513,358.7591,1.3622,0,999,8997,0.001613,0.00037347,0,3784184,0 SPACEBEE-108,1 48895U 21059S   23040.95462730  .00037347  00000-0  16130-2 0  9993,2 48895  97.5795 175.8513 0008428 358.7591   1.3622 15.22367452 89972,2021-059S,48895,6876.839,94.59,504.5,492.908,0,2023/3/28
GENERATED VIA SPACETRACK.ORG API,18 SPCS,48895,SPACEBEE-108,PAYLOAD,U,21059S,2023/2/10 9:57,186432,15.22407312,0.0008438,97.5794,176.315,356.568,3.5497,0,999,9004,0.0018609,0.00043183,0,3784132,0 SPACEBEE-108,1 48895U 21059S   23041.41472438  .00043183  00000-0  18609-2 0  9999,2 48895  97.5794 176.3150 0008438 356.5680   3.5497 15.22407312 90044,2021-059S,48895,6876.719,94.587,504.386,492.781,0,2023/3/29
GENERATED VIA SPACETRACK.ORG API,18 SPCS,48895,SPACEBEE-108,PAYLOAD,U,21059S,2023/2/10 9:57,186432,15.22407312,0.0008438,97.5794,176.315,356.568,3.5497,0,999,9004,0.0018609,0.00043183,0,3785071,0 SPACEBEE-108,1 48895U 21059S   23041.41472438  .00043183  00000-0  18609-2 0  9999,2 48895  97.5794 176.3150 0008438 356.5680   3.5497 15.22407312 90044,2021-059S,48895,6876.719,94.587,504.386,492.781,0,2023/3/30
GENERATED VIA SPACETRACK.ORG API,18 SPCS,48895,SPACEBEE-108,PAYLOAD,U,21059S,2023/2/10 22:34,305216,15.22446125,0.0008463,97.5794,176.845,354.2963,5.8175,0,999,9012,0.0016357,0.00037965,0,3785735,0 SPACEBEE-108,1 48895U 21059S   23041.94053594  .00037965  00000-0  16357-2 0  9994,2 48895  97.5794 176.8450 0008463 354.2963   5.8175 15.22446125 90121,2021-059S,48895,6876.602,94.585,504.287,492.647,0,2023/3/31
GENERATED VIA SPACETRACK.ORG API,18 SPCS,48895,SPACEBEE-108,PAYLOAD,U,21059S,2023/2/10 22:34,305216,15.22446125,0.0008463,97.5794,176.845,354.2963,5.8175,0,999,9012,0.0016357,0.00037965,0,3786144,0 SPACEBEE-108,1 48895U 21059S   23041.94053594  .00037965  00000-0  16357-2 0  9994,2 48895  97.5794 176.8450 0008463 354.2963   5.8175 15.22446125 90121,2021-059S,48895,6876.602,94.585,504.287,492.647,0,2023/4/1
GENERATED VIA SPACETRACK.ORG API,18 SPCS,48895,SPACEBEE-108,PAYLOAD,U,21059S,2023/2/11 19:04,487328,15.22518717,0.0008514,97.5795,177.7067,350.7428,9.3649,0,999,9025,0.0017571,0.00040892,0,3786577,0 SPACEBEE-108,1 48895U 21059S   23042.79494777  .00040892  00000-0  17571-2 0  9992,2 48895  97.5795 177.7067 0008514 350.7428   9.3649 15.22518717 90256,2021-059S,48895,6876.383,94.58,504.103,492.394,0,2023/4/2
